[{"OBJECT_NAME":"STARLINK-31161","OBJECT_ID":"2024-012J","EPOCH":"2026-03-09T07:58:51.726432","MEAN_MOTION":15.27571922,"ECCENTRICITY":8.21e-5,"INCLINATION":43.0016,"RA_OF_ASC_NODE":167.0695,"ARG_OF_PERICENTER":246.6906,"MEAN_ANOMALY":113.3859,"EPHEMERIS_TYPE":0,"CLASSIFICATION_TYPE":"U","NORAD_CAT_ID":58795,"ELEMENT_SET_NO":999,"REV_AT_EPOCH":12118,"BSTAR":5.159107e-6,"MEAN_MOTION_DOT":-1.2e-6,"MEAN_MOTION_DDOT":0},{"OBJECT_NAME":"GEOSCAN 4 (RS92S4)","OBJECT_ID":"2025-155S","EPOCH":"2026-03-09T21:50:07.724832","MEAN_MOTION":15.30369837,"ECCENTRICITY":0.00070968,"INCLINATION":97.4465,"RA_OF_ASC_NODE":37.7626,"ARG_OF_PERICENTER":154.7045,"MEAN_ANOMALY":205.4544,"EPHEMERIS_TYPE":0,"CLASSIFICATION_TYPE":"U","NORAD_CAT_ID":64892,"ELEMENT_SET_NO":999,"REV_AT_EPOCH":6562,"BSTAR":0.00068609503,"MEAN_MOTION_DOT":0.00020121,"MEAN_MOTION_DDOT":0}]
